[{"OBJECT_NAME":"STARLINK-2094","OBJECT_ID":"2021-005AC","EPOCH":"2026-03-09T22:00:01.999584","MEAN_MOTION":15.1057612,"ECCENTRICITY":0.00015618,"INCLINATION":53.0714,"RA_OF_ASC_NODE":60.5643,"ARG_OF_PERICENTER":87.5048,"MEAN_ANOMALY":287.6905,"EPHEMERIS_TYPE":0,"CLASSIFICATION_TYPE":"U","NORAD_CAT_ID":47375,"ELEMENT_SET_NO":999,"REV_AT_EPOCH":572,"BSTAR":0.052663028,"MEAN_MOTION_DOT":0.00941976,"MEAN_MOTION_DDOT":0},{"OBJECT_NAME":"COSMOS 970 DEB","OBJECT_ID":"1977-121BY","EPOCH":"2026-03-08T00:28:08.036544","MEAN_MOTION":15.38602545,"ECCENTRICITY":0.01254623,"INCLINATION":65.7647,"RA_OF_ASC_NODE":81.4591,"ARG_OF_PERICENTER":84.8291,"MEAN_ANOMALY":276.7158,"EPHEMERIS_TYPE":0,"CLASSIFICATION_TYPE":"U","NORAD_CAT_ID":20327,"ELEMENT_SET_NO":999,"REV_AT_EPOCH":74479,"BSTAR":0.0016623992,"MEAN_MOTION_DOT":0.00084425,"MEAN_MOTION_DDOT":0}]
